*******************************************************************************
Ephemeris / WWW_USER Wed Jun 10 10:41:32 2020 Pasadena, USA      / Horizons
*******************************************************************************
Target body name: Uranus (799)                    {source: ura111}
Center body name: Sun (10)                        {source: DE431mx}
Center-site name: BODY CENTER
*******************************************************************************
Start time      : A.D. 2000-Jul-09 00:00:00.0000 TDB
Stop  time      : A.D. 2024-Jul-09 00:00:00.0000 TDB
Step-size       : 1440 minutes
*******************************************************************************
Center geodetic : 0.00000000,0.00000000,0.0000000 {E-lon(deg),Lat(deg),Alt(km)}
Center cylindric: 0.00000000,0.00000000,0.0000000 {E-lon(deg),Dxy(km),Dz(km)}
Center radii    : 696000.0 x 696000.0 x 696000.0 k{Equator, meridian, pole}    
Keplerian GM    : 2.9592512720208388E-04 au^3/d^2
Output units    : AU-D, deg, Julian Day Number (Tp)
Output type     : GEOMETRIC osculating elements
Output format   : 10
Reference frame : Ecliptic of J2000.0
*******************************************************************************
            JDTDB,            Calendar Date (TDB),                     EC,                     QR,                     IN,                     OM,                      W,                     Tp,                      N,                     MA,                     TA,                      A,                     AD,                     PR,
**************************************************************************************************************************************************************************************************************************************************************************************************************************************************
$$SOE
2452838.500000000, A.D. 2003-Jul-18 00:00:00.0000,  4.991149188144087E-02,  1.817534813163011E+01,  7.719160198460091E-01,  7.389184694014766E+01,  9.546430687509284E+01,  2.439331835638319E+06,  1.177973564494771E-02,  1.591049356256408E+02,  1.610318789061054E+02,  1.913016311251083E+01,  2.008497809339156E+01,  3.056095746549311E+04,
2452839.500000000, A.D. 2003-Jul-19 00:00:00.0000,  4.991956589291478E-02,  1.817488704578807E+01,  7.718933535174667E-01,  7.388481589517957E+01,  9.543878471544134E+01,  2.439329172208246E+06,  1.178003375024674E-02,  1.591521173637579E+02,  1.610751654143435E+02,  1.912984037279895E+01,  2.008479369980982E+01,  3.056018409051329E+04,
2452840.500000000, A.D. 2003-Jul-20 00:00:00.0000,  4.990851752900242E-02,  1.817541403638962E+01,  7.714185133960393E-01,  7.373690389095796E+01,  9.561198083567405E+01,  2.439331139620005E+06,  1.177972689063774E-02,  1.591365757435463E+02,  1.610606017476329E+02,  1.913017259045309E+01,  2.008493114451656E+01,  3.056098017740291E+04,
2452841.500000000, A.D. 2003-Jul-21 00:00:00.0000,  4.991068817935575E-02,  1.817547662446976E+01,  7.716834954290864E-01,  7.381974519386127E+01,  9.555496769314134E+01,  2.439333436440373E+06,  1.177962567561091E-02,  1.591199323347607E+02,  1.610455149947739E+02,  1.913028217277839E+01,  2.008508772108702E+01,  3.056124276897531E+04,
2452842.500000000, A.D. 2003-Jul-22 00:00:00.0000,  4.991276539921539E-02,  1.817541082998556E+01,  7.716926945114450E-01,  7.382260933990297E+01,  9.555352138673516E+01,  2.439333604605883E+06,  1.177965100692873E-02,  1.591300732318091E+02,  1.610548312252576E+02,  1.913025474721029E+01,  2.008509866443502E+01,  3.056117704915449E+04,
2452843.500000000, A.D. 2003-Jul-23 00:00:00.0000,  4.991823124702232E-02,  1.817526306553894E+01,  7.719735488775337E-01,  7.390993379799802E+01,  9.547463212112058E+01,  2.439334456432080E+06,  1.177969300611851E-02,  1.591323860363806E+02,  1.610571377061079E+02,  1.913020927598131E+01,  2.008515548642367E+01,  3.056106808666507E+04,
2452844.500000000, A.D. 2003-Jul-24 00:00:00.0000,  4.992879993018794E-02,  1.817464232473164E+01,  7.719369485419004E-01,  7.389855510756621E+01,  9.544015332442166E+01,  2.439330686742262E+06,  1.178009993569475E-02,  1.591940706884755E+02,  1.611137277491884E+02,  1.912976871985610E+01,  2.008489511498055E+01,  3.056001239082597E+04,
2452845.500000000, A.D. 2003-Jul-25 00:00:00.0000,  4.991742679199853E-02,  1.817518939786939E+01,  7.714663498104803E-01,  7.375152983560875E+01,  9.561409614696294E+01,  2.439332789816304E+06,  1.177977958564061E-02,  1.591767475685852E+02,  1.610975303674367E+02,  1.913011553985245E+01,  2.008504168183550E+01,  3.056084346763457E+04,
2452846.500000000, A.D. 2003-Jul-26 00:00:00.0000,  4.992063049298659E-02,  1.817518112220063E+01,  7.717453844357243E-01,  7.383900813875100E+01,  9.554611990800589E+01,  2.439334557739660E+06,  1.177972804860162E-02,  1.591670052352138E+02,  1.610887697614925E+02,  1.913017133677111E+01,  2.008516155134158E+01,  3.056097717321546E+04,
2452847.500000000, A.D. 2003-Jul-27 00:00:00.0000,  4.992258071268308E-02,  1.817503167578060E+01,  7.715697188023278E-01,  7.378395120988039E+01,  9.558622222240864E+01,  2.439333296593960E+06,  1.177983706863397E-02,  1.591951142355299E+02,  1.611144527929180E+02,  1.913005330598665E+01,  2.008507493619270E+01,  3.056069433749365E+04,
2452848.500000000, A.D. 2003-Jul-28 00:00:00.0000,  4.991841731963019E-02,  1.817535663787267E+01,  7.715599527483902E-01,  7.378089733301762E+01,  9.562229710746169E+01,  2.439336085417124E+06,  1.177959857746866E-02,  1.591708195986214E+02,  1.610921648965915E+02,  1.913031151135081E+01,  2.008526638482894E+01,  3.056131307297578E+04,
2452849.500000000, A.D. 2003-Jul-29 00:00:00.0000,  4.992248189750949E-02,  1.817522010970822E+01,  7.716820192870778E-01,  7.381923527316265E+01,  9.558529710611801E+01,  2.439336289049126E+06,  1.177965571340784E-02,  1.591809725839511E+02,  1.611015637741174E+02,  1.913024965163690E+01,  2.008527919356559E+01,  3.056116483864981E+04,
2452850.500000000, A.D. 2003-Jul-30 00:00:00.0000,  4.991947908918499E-02,  1.817549629453821E+01,  7.717325824050091E-01,  7.383511095501002E+01,  9.560098920164928E+01,  2.439338975922820E+06,  1.177944306350524E-02,  1.591582285683269E+02,  1.610807307252138E+02,  1.913047988513003E+01,  2.008546347572186E+01,  3.056171654798711E+04,
2452851.500000000, A.D. 2003-Jul-31 00:00:00.0000,  4.993773029206813E-02,  1.817475766429237E+01,  7.724398461027583E-01,  7.405503540566960E+01,  9.536375603705268E+01,  2.439337857570942E+06,  1.177982170690310E-02,  1.591882984251511E+02,  1.611087926288311E+02,  1.913006993728911E+01,  2.008538221028585E+01,  3.056073419082703E+04,
2452852.500000000, A.D. 2003-Aug-01 00:00:00.0000,  4.994740598231460E-02,  1.817411621034494E+01,  7.722577088610483E-01,  7.399870680658816E+01,  9.536439235525069E+01,  2.439333210944356E+06,  1.178026540178533E-02,  1.592608131189344E+02,  1.611752127687368E+02,  1.912958958775983E+01,  2.008506296517474E+01,  3.055958314363961E+04,
2452853.500000000, A.D. 2003-Aug-02 00:00:00.0000,  4.994274760951248E-02,  1.817434412525051E+01,  7.720140242089851E-01,  7.392291990930543E+01,  9.545194655741705E+01,  2.439334137379342E+06,  1.178013044866282E-02,  1.592598552541303E+02,  1.611741714618476E+02,  1.912973568647691E+01,  2.008512724770332E+01,  3.055993323408946E+04,
2452854.500000000, A.D. 2003-Aug-03 00:00:00.0000,  4.994871951667838E-02,  1.817401127275502E+01,  7.719870751929954E-01,  7.391448619228387E+01,  9.543768921906283E+01,  2.439332287350413E+06,  1.178034300049634E-02,  1.592963031377879E+02,  1.612075945525435E+02,  1.912950558154011E+01,  2.008499989032519E+01,  3.055938184353647E+04,
2452855.500000000, A.D. 2003-Aug-04 00:00:00.0000,  4.994187741960220E-02,  1.817430941313371E+01,  7.716015162696598E-01,  7.379329972740148E+01,  9.556934773502638E+01,  2.439333054388266E+06,  1.178018038274733E-02,  1.592968485221135E+02,  1.612078442227524E+02,  1.912968162807926E+01,  2.008505384302481E+01,  3.055980369598060E+04,
2452856.500000000, A.D. 2003-Aug-05 00:00:00.0000,  4.994171288099616E-02,  1.817437019288361E+01,  7.715994651481346E-01,  7.379265416203161E+01,  9.558025197847020E+01,  2.439333945352022E+06,  1.178012434914757E-02,  1.592973752713287E+02,  1.612083181898240E+02,  1.912974228980870E+01,  2.008511438673378E+01,  3.055994905741807E+04,
2452857.500000000, A.D. 2003-Aug-06 00:00:00.0000,  4.993323003054969E-02,  1.817472406915345E+01,  7.711305068428065E-01,  7.364332068782198E+01,  9.573962821402510E+01,  2.439334639938514E+06,  1.177993806704598E-02,  1.592984540136346E+02,  1.612089945343420E+02,  1.912994396145216E+01,  2.008516385375087E+01,  3.056043231730472E+04,
2452858.500000000, A.D. 2003-Aug-07 00:00:00.0000,  4.992385562078203E-02,  1.817544279477973E+01,  7.712529313468901E-01,  7.368254248926465E+01,  9.577260074981288E+01,  2.439340732698028E+06,  1.177941368005659E-02,  1.592313730806692E+02,  1.611475364729148E+02,  1.913051169878137E+01,  2.008558060278301E+01,  3.056179278341387E+04,
2452859.500000000, A.D. 2003-Aug-08 00:00:00.0000,  4.993791657547329E-02,  1.817491213256530E+01,  7.718530673051650E-01,  7.387299973050079E+01,  9.557593732319606E+01,  2.439340492238436E+06,  1.177966806791448E-02,  1.592494240387779E+02,  1.611644926218123E+02,  1.913023627577400E+01,  2.008556041898269E+01,  3.056113278612407E+04,
2452860.500000000, A.D. 2003-Aug-09 00:00:00.0000,  4.994081475849985E-02,  1.817476504744816E+01,  7.718186046826069E-01,  7.386213143570303E+01,  9.557849760689147E+01,  2.439339830267073E+06,  1.177975716254238E-02,  1.592702061288177E+02,  1.611835321852728E+02,  1.913013981631916E+01,  2.008551458519016E+01,  3.056090164105748E+04,
